NORAD_CAT_ID,OBJECT_NAME,OBJECT_TYPE,EPOCH,MEAN_MOTION,ECCENTRICITY,INCLINATION,RA_OF_ASC_NODE,ARG_OF_PERICENTER,MEAN_ANOMALY,BSTAR,MEAN_MOTION_DOT,MEAN_MOTION_DDOT,TLE_LINE0,TLE_LINE1,TLE_LINE2,SEMIMAJOR_AXIS,PERIOD,APOGEE,PERIGEE,DECAYED
53737.0,STARLINK-4646,PAYLOAD,2023-03-27 10:06:59,15.08854269,9.95e-05,53.2187,64.5083,89.7405,270.3701,0.00027643,4.116e-05,0.0,0 STARLINK-4646,1 53737U 22107AP  23086.42151663  .00004116  00000-0  27643-3 0  9991,2 53737  53.2187  64.5083 0000995  89.7405 270.3701 15.08854269 31030,6917.837,95.437,540.39,539.013,0.0
53737.0,STARLINK-4646,PAYLOAD,2023-03-28 05:11:37,15.08851066,0.0001162,53.2185,60.9408,89.2977,270.8148,0.00033591,5.064e-05,0.0,0 STARLINK-4646,1 53737U 22107AP  23087.21640087  .00005064  00000-0  33591-3 0  9994,2 53737  53.2185  60.9408 0001162  89.2977 270.8148 15.08851066 31150,6917.847,95.437,540.515,538.908,0.0
53737.0,STARLINK-4646,PAYLOAD,2023-03-28 09:57:46,15.08857902,0.0001258,53.2185,60.0481,90.3062,269.8075,0.00062026,9.602e-05,0.0,0 STARLINK-4646,1 53737U 22107AP  23087.41511877  .00009602  00000-0  62026-3 0  9997,2 53737  53.2185  60.0481 0001258  90.3062 269.8075 15.08857902 31967,6917.826,95.436,540.561,538.82,0.0
53737.0,STARLINK-4646,PAYLOAD,2023-03-29 00:16:14,15.08842524,9.62e-05,53.2193,57.3714,129.7906,230.3171,0.00040797,6.211e-05,0.0,0 STARLINK-4646,1 53737U 22107AP  23088.01127938  .00006211  00000-0  40797-3 0  9999,2 53737  53.2193  57.3714 0000962 129.7906 230.3171 15.08842524 31277,6917.873,95.437,540.403,539.072,0.0
53737.0,STARLINK-4646,PAYLOAD,2023-03-29 05:02:23,15.08864907,0.0001341,53.2182,56.481,108.3224,251.7914,0.0012746,0.00020069,0.0,0 STARLINK-4646,1 53737U 22107AP  23088.20999630  .00020069  00000-0  12746-2 0  9995,2 53737  53.2182  56.4810 0001341 108.3224 251.7914 15.08864907 31305,6917.804,95.436,540.597,538.742,0.0
53737.0,STARLINK-4646,PAYLOAD,2023-03-29 08:13:09,15.08879217,0.000135,53.218,55.8859,112.3216,247.7919,0.0016773,0.00026536,0.0,0 STARLINK-4646,1 53737U 22107AP  23088.34247270  .00026536  00000-0  16773-2 0  9995,2 53737  53.2180  55.8859 0001350 112.3216 247.7919 15.08879217 32104,6917.761,95.435,540.559,538.692,0.0
53737.0,STARLINK-4646,PAYLOAD,2023-03-30 03:17:47,15.08849573,0.0001517,53.2175,52.3176,138.0388,222.0721,0.0017027,0.00026922,0.0,0 STARLINK-4646,1 53737U 22107AP  23089.13735900  .00026922  00000-0  17027-2 0  9997,2 53737  53.2175  52.3176 0001517 138.0388 222.0721 15.08849573 31447,6917.851,95.437,540.766,538.667,0.0
53737.0,STARLINK-4646,PAYLOAD,2023-03-30 09:39:20,15.08852598,0.0001099,53.2171,51.1279,83.6559,276.4559,0.0015587,0.00024614,0.0,0 STARLINK-4646,1 53737U 22107AP  23089.40232150  .00024614  00000-0  15587-2 0  9991,2 53737  53.2171  51.1279 0001099  83.6559 276.4559 15.08852598 31481,6917.842,95.437,540.467,538.947,0.0
53737.0,STARLINK-4646,PAYLOAD,2023-03-31 06:19:22,15.08848871,0.0001858,53.2164,47.2625,82.3574,277.7629,0.0017166,0.00027144,0.0,0 STARLINK-4646,1 53737U 22107AP  23090.26345103  .00027144  00000-0  17166-2 0  9996,2 53737  53.2164  47.2625 0001858  82.3574 277.7629 15.08848871 31616,6917.853,95.437,541.004,538.433,0.0
53737.0,STARLINK-4646,PAYLOAD,2023-03-31 20:37:50,15.08838079,0.0001601,53.2174,44.5827,109.5939,250.5226,0.0011925,0.00018741,0.0,0 STARLINK-4646,1 53737U 22107AP  23090.85961112  .00018741  00000-0  11925-2 0  9995,2 53737  53.2174  44.5827 0001601 109.5939 250.5226 15.08838079 31705,6917.886,95.438,540.859,538.644,0.0
53737.0,STARLINK-4646,PAYLOAD,2023-04-01 02:59:22,15.08852006,0.0001541,53.217,43.3943,101.6061,258.5104,0.0012283,0.00019321,0.0,0 STARLINK-4646,1 53737U 22107AP  23091.12456917  .00019321  00000-0  12283-2 0  9991,2 53737  53.2170  43.3943 0001541 101.6061 258.5104 15.08852006 32529,6917.844,95.437,540.775,538.643,0.0
53737.0,STARLINK-4646,PAYLOAD,2023-04-02 02:50:09,15.08846404,0.0001374,53.2168,38.9354,92.2121,267.9029,0.00070052,0.0001088,0.0,0 STARLINK-4646,1 53737U 22107AP  23092.11817076  .00010880  00000-0  70052-3 0  9998,2 53737  53.2168  38.9354 0001374  92.2121 267.9029 15.08846404 31892,6917.861,95.437,540.676,538.775,0.0
53737.0,STARLINK-4646,PAYLOAD,2023-04-02 20:19:24,15.08840267,0.00016,53.2177,35.666,97.9891,262.1282,0.00013485,1.859e-05,0.0,0 STARLINK-4646,1 53737U 22107AP  23092.84681246  .00001859  00000-0  13485-3 0  9999,2 53737  53.2177  35.6660 0001600  97.9891 262.1282 15.08840267 32007,6917.88,95.438,540.851,538.638,0.0
53737.0,STARLINK-4646,PAYLOAD,2023-04-03 05:51:43,15.08850037,0.0001332,53.2172,33.8798,92.8381,267.2764,0.00026165,3.88e-05,0.0,0 STARLINK-4646,1 53737U 22107AP  23093.24424769  .00003880  00000-0  26165-3 0  9994,2 53737  53.2172  33.8798 0001332  92.8381 267.2764 15.08850037 32067,6917.85,95.437,540.636,538.793,0.0
53737.0,STARLINK-4646,PAYLOAD,2023-04-04 05:42:30,15.08853123,0.0001366,53.2183,29.4222,94.3874,265.7274,0.00033006,4.971e-05,0.0,0 STARLINK-4646,1 53737U 22107AP  23094.23784728  .00004971  00000-0  33006-3 0  9992,2 53737  53.2183  29.4222 0001366  94.3874 265.7274 15.08853123 32218,6917.84,95.437,540.65,538.76,0.0
53737.0,STARLINK-4646,PAYLOAD,2023-04-04 20:00:58,15.08840244,0.0001654,53.2188,26.7453,96.0251,264.093,5.2894e-05,5.54e-06,0.0,0 STARLINK-4646,1 53737U 22107AP  23094.83401335  .00000554  00000-0  52894-4 0  9998,2 53737  53.2188  26.7453 0001654  96.0251 264.0930 15.08840244 32308,6917.88,95.438,540.889,538.6,0.0
53737.0,STARLINK-4646,PAYLOAD,2023-04-05 05:33:17,15.08850635,0.0001258,53.2181,24.9598,96.3575,263.756,0.0002654,3.94e-05,0.0,0 STARLINK-4646,1 53737U 22107AP  23095.23144734  .00003940  00000-0  26540-3 0  9990,2 53737  53.2181  24.9598 0001258  96.3575 263.7560 15.08850635 33146,6917.848,95.437,540.583,538.843,0.0
53737.0,STARLINK-4646,PAYLOAD,2023-04-05 23:02:31,15.08840131,0.0001688,53.2165,21.6863,129.73,230.3841,1.2779e-05,-8.5e-07,0.0,0 STARLINK-4646,1 53737U 22107AP  23095.96009031 -.00000085  00000-0  12779-4 0  9998,2 53737  53.2165  21.6863 0001688 129.7300 230.3841 15.08840131 32478,6917.88,95.438,540.913,538.577,0.0
53737.0,STARLINK-4646,PAYLOAD,2023-04-06 05:24:04,15.08849199,0.0001129,53.2178,20.5002,93.1974,266.9147,0.00020307,2.946e-05,0.0,0 STARLINK-4646,1 53737U 22107AP  23096.22504772  .00002946  00000-0  20307-3 0  9992,2 53737  53.2178  20.5002 0001129  93.1974 266.9147 15.08849199 33294,6917.852,95.437,540.498,538.936,0.0
53737.0,STARLINK-4646,PAYLOAD,2023-04-06 18:07:09,15.08834988,0.000119,53.2186,18.1209,96.3951,263.7177,4.3251e-05,4e-06,0.0,0 STARLINK-4646,1 53737U 22107AP  23096.75497565  .00000400  00000-0  43251-4 0  9998,2 53737  53.2186  18.1209 0001190  96.3951 263.7177 15.08834988 32593,6917.896,95.438,540.584,538.937,0.0
53737.0,STARLINK-4646,PAYLOAD,2023-04-07 03:39:28,15.08841814,0.0001274,53.2179,16.3373,97.1893,262.9244,0.00026031,3.858e-05,0.0,0 STARLINK-4646,1 53737U 22107AP  23097.15241467  .00003858  00000-0  26031-3 0  9997,2 53737  53.2179  16.3373 0001274  97.1893 262.9244 15.08841814 33430,6917.875,95.437,540.621,538.859,0.0
53737.0,STARLINK-4646,PAYLOAD,2023-04-08 03:30:15,15.08844494,0.0001151,53.2176,11.8767,94.5611,265.5513,0.00024698,3.645e-05,0.0,0 STARLINK-4646,1 53737U 22107AP  23098.14601787  .00003645  00000-0  24698-3 0  9993,2 53737  53.2176  11.8767 0001151  94.5611 265.5513 15.08844494 32802,6917.867,95.437,540.528,538.935,0.0
53737.0,STARLINK-4646,PAYLOAD,2023-04-09 03:21:02,15.08859974,0.0001242,53.2167,7.417,90.9076,269.2058,0.00055711,8.594e-05,0.0,0 STARLINK-4646,1 53737U 22107AP  23099.13961382  .00008594  00000-0  55711-3 0  9991,2 53737  53.2167   7.4170 0001242  90.9076 269.2058 15.08859974 33734,6917.819,95.436,540.544,538.825,0.0
53737.0,STARLINK-4646,PAYLOAD,2023-04-09 17:39:31,15.08841039,0.0001545,53.2168,4.7407,83.421,276.6958,4.5359e-05,4.34e-06,0.0,0 STARLINK-4646,1 53737U 22107AP  23099.73577915  .00000434  00000-0  45359-4 0  9995,2 53737  53.2168   4.7407 0001545  83.4210 276.6958 15.08841039 33049,6917.877,95.437,540.811,538.673,0.0
53737.0,STARLINK-4646,PAYLOAD,2023-04-10 03:11:49,15.08847081,0.0001293,53.2168,2.9553,86.4019,273.7121,0.00022867,3.354e-05,0.0,0 STARLINK-4646,1 53737U 22107AP  23100.13321759  .00003354  00000-0  22867-3 0  9997,2 53737  53.2168   2.9553 0001293  86.4019 273.7121 15.08847081 33886,6917.859,95.437,540.618,538.829,0.0
53737.0,STARLINK-4646,PAYLOAD,2023-04-11 03:02:36,15.08860278,0.0001374,53.2169,358.4938,86.4334,273.6815,0.00061582,9.532e-05,0.0,0 STARLINK-4646,1 53737U 22107AP  23101.12681199  .00009532  00000-0  61582-3 0  9995,2 53737  53.2169 358.4938 0001374  86.4334 273.6815 15.08860278 33256,6917.818,95.436,540.634,538.733,0.0
53737.0,STARLINK-4646,PAYLOAD,2023-04-12 01:18:01,15.0883996,0.000106,53.2173,354.3317,90.7117,269.3996,8.8058e-05,1.114e-05,0.0,0 STARLINK-4646,1 53737U 22107AP  23102.05417846  .00001114  00000-0  88058-4 0  9990,2 53737  53.2173 354.3317 0001060  90.7117 269.3996 15.08839960 34174,6917.881,95.438,540.479,539.012,0.0
53737.0,STARLINK-4646,PAYLOAD,2023-04-12 23:33:25,15.08837797,0.0001072,53.2171,350.1721,106.1718,253.9392,0.00012974,1.777e-05,0.0,0 STARLINK-4646,1 53737U 22107AP  23102.98154285  .00001777  00000-0  12974-3 0  9995,2 53737  53.2171 350.1721 0001072 106.1718 253.9392 15.08837797 34318,6917.887,95.438,540.494,539.011,0.0
53737.0,STARLINK-4646,PAYLOAD,2023-04-14 00:59:35,15.08848138,7.4e-05,53.2167,345.4117,80.8821,279.2255,0.00032803,4.938e-05,0.0,0 STARLINK-4646,1 53737U 22107AP  23104.04138150  .00004938  00000-0  32803-3 0  9992,2 53737  53.2167 345.4117 0000740  80.8821 279.2255 15.08848138 33693,6917.856,95.437,540.232,539.209,0.0
53737.0,STARLINK-4646,PAYLOAD,2023-04-15 00:50:22,15.08852511,8.29e-05,53.2165,340.9517,81.0545,279.0541,0.00036966,5.602e-05,0.0,0 STARLINK-4646,1 53737U 22107AP  23105.03498044  .00005602  00000-0  36966-3 0  9996,2 53737  53.2165 340.9517 0000829  81.0545 279.0541 15.08852511 34629,6917.842,95.437,540.281,539.134,0.0
